ION SCV-004             
1 50993U 22002K   26068.68892644  .00006538  00000+0  23198-3 0  9998
2 50993  97.2961 128.2294 0007216   1.6783 358.4480 15.29369331230088
STARLINK-31241          
1 59045U 24038Y   26068.28492213  .00000945  00000+0  43846-4 0  9999
2 59045  43.0030  26.0795 0001613 256.1109 103.9563 15.27585159114796
